NORAD_CAT_ID,OBJECT_NAME,OBJECT_TYPE,EPOCH,MEAN_MOTION,ECCENTRICITY,INCLINATION,RA_OF_ASC_NODE,ARG_OF_PERICENTER,MEAN_ANOMALY,BSTAR,MEAN_MOTION_DOT,MEAN_MOTION_DDOT,TLE_LINE0,TLE_LINE1,TLE_LINE2,SEMIMAJOR_AXIS,PERIOD,APOGEE,PERIGEE,DECAYED
52304.0,STARLINK-3744,PAYLOAD,2023-11-09 09:25:28,15.08869155,0.0001251,53.2154,310.7443,83.6128,276.5006,0.00078959,0.00012311,0.0,0 STARLINK-3744,1 52304U 22041AV  23313.39269232  .00012311  00000-0  78959-3 0  9990,2 52304  53.2154 310.7443 0001251  83.6128 276.5006 15.08869155 86126,6917.791,95.436,540.522,538.791,0.0
52304.0,STARLINK-3744,PAYLOAD,2023-11-09 17:22:24,15.08863102,0.0001556,53.2154,309.2586,80.7648,279.352,0.00042251,6.447e-05,0.0,0 STARLINK-3744,1 52304U 22041AV  23313.72389234  .00006447  00000-0  42251-3 0  9991,2 52304  53.2154 309.2586 0001556  80.7648 279.3520 15.08863102 86173,6917.81,95.436,540.751,538.598,0.0
52304.0,STARLINK-3744,PAYLOAD,2023-11-09 23:43:56,15.08865004,0.0002341,53.2152,308.0691,82.5477,277.5781,0.00074002,0.00011517,0.0,0 STARLINK-3744,1 52304U 22041AV  23313.98885259  .00011517  00000-0  74002-3 0  9990,2 52304  53.2152 308.0691 0002341  82.5477 277.5781 15.08865004 87430,6917.804,95.436,541.288,538.05,0.0
52304.0,STARLINK-3744,PAYLOAD,2023-11-10 09:16:15,15.08855195,0.0001742,53.2168,306.2826,102.0325,258.0862,0.00041549,6.333e-05,0.0,0 STARLINK-3744,1 52304U 22041AV  23314.38628931  .00006333  00000-0  41549-3 0  9997,2 52304  53.2168 306.2826 0001742 102.0325 258.0862 15.08855195 87491,6917.834,95.437,540.904,538.494,0.0
52304.0,STARLINK-3744,PAYLOAD,2023-11-10 17:13:11,15.08839807,0.0002034,53.2163,304.7963,89.058,271.0645,0.00022596,3.31e-05,0.0,0 STARLINK-3744,1 52304U 22041AV  23314.71749465  .00003310  00000-0  22596-3 0  9993,2 52304  53.2163 304.7963 0002034  89.0580 271.0645 15.08839807 87545,6917.881,95.438,541.153,538.339,0.0
52304.0,STARLINK-3744,PAYLOAD,2023-11-11 05:56:16,15.08846923,0.0001607,53.2161,302.4172,96.4884,263.6291,0.00052382,8.06e-05,0.0,0 STARLINK-3744,1 52304U 22041AV  23315.24741255  .00008060  00000-0  52382-3 0  9994,2 52304  53.2161 302.4172 0001607  96.4884 263.6291 15.08846923 86409,6917.859,95.437,540.836,538.613,0.0
52304.0,STARLINK-3744,PAYLOAD,2023-11-12 02:36:17,15.0884615,0.0001671,53.2161,298.5496,103.2201,256.8977,0.00034698,5.239e-05,0.0,0 STARLINK-3744,1 52304U 22041AV  23316.10853241  .00005239  00000-0  34698-3 0  9994,2 52304  53.2161 298.5496 0001671 103.2201 256.8977 15.08846150 87750,6917.862,95.437,540.883,538.571,0.0
52304.0,STARLINK-3744,PAYLOAD,2023-11-12 04:11:40,15.08845639,0.0001659,53.2158,298.2538,92.8915,267.2267,0.00033523,5.052e-05,0.0,0 STARLINK-3744,1 52304U 22041AV  23316.17477310  .00005052  00000-0  33523-3 0  9999,2 52304  53.2158 298.2538 0001659  92.8915 267.2267 15.08845639 86546,6917.863,95.437,540.876,538.58,0.0
52304.0,STARLINK-3744,PAYLOAD,2023-11-12 15:19:22,15.0884567,0.0001663,53.2164,296.1728,89.8232,270.295,0.00026849,3.988e-05,0.0,0 STARLINK-3744,1 52304U 22041AV  23316.63845299  .00003988  00000-0  26849-3 0  9994,2 52304  53.2164 296.1728 0001663  89.8232 270.2950 15.08845670 86610,6917.863,95.437,540.878,538.578,0.0
52304.0,STARLINK-3744,PAYLOAD,2023-11-13 04:02:27,15.08839591,0.0001682,53.2171,293.7935,97.5713,262.547,5.4846e-05,5.85e-06,0.0,0 STARLINK-3744,1 52304U 22041AV  23317.16837403  .00000585  00000-0  54846-4 0  9990,2 52304  53.2171 293.7935 0001682  97.5713 262.5470 15.08839591 87912,6917.882,95.438,540.91,538.583,0.0
52304.0,STARLINK-3744,PAYLOAD,2023-11-13 08:48:36,15.08847165,0.0001582,53.2173,292.9027,93.9828,266.1345,0.00017163,2.445e-05,0.0,0 STARLINK-3744,1 52304U 22041AV  23317.36709067  .00002445  00000-0  17163-3 0  9993,2 52304  53.2173 292.9027 0001582  93.9828 266.1345 15.08847165 86728,6917.858,95.437,540.818,538.629,0.0
52304.0,STARLINK-3744,PAYLOAD,2023-11-13 15:10:09,15.08844252,0.0001513,53.2166,291.7111,83.2033,276.9131,8.5262e-05,1.069e-05,0.0,0 STARLINK-3744,1 52304U 22041AV  23317.63205116  .00001069  00000-0  85262-4 0  9996,2 52304  53.2166 291.7111 0001513  83.2033 276.9131 15.08844252 86765,6917.867,95.437,540.779,538.686,0.0
52304.0,STARLINK-3744,PAYLOAD,2023-11-14 05:28:37,15.08840313,0.000159,53.2173,289.0382,96.5531,263.5642,5.0197e-05,5.11e-06,0.0,0 STARLINK-3744,1 52304U 22041AV  23318.22821368  .00000511  00000-0  50197-4 0  9995,2 52304  53.2173 289.0382 0001590  96.5531 263.5642 15.08840313 88077,6917.879,95.438,540.844,538.644,0.0
52304.0,STARLINK-3744,PAYLOAD,2023-11-14 21:22:29,15.08837966,0.0001501,53.2176,286.0642,99.8677,260.2485,0.00010603,1.4e-05,0.0,0 STARLINK-3744,1 52304U 22041AV  23318.89061785  .00001400  00000-0  10603-3 0  9992,2 52304  53.2176 286.0642 0001501  99.8677 260.2485 15.08837966 86959,6917.887,95.438,540.79,538.713,0.0
52304.0,STARLINK-3744,PAYLOAD,2023-11-15 06:54:47,15.08846017,0.0001552,53.2171,284.2798,96.0525,264.0644,0.00012457,1.695e-05,0.0,0 STARLINK-3744,1 52304U 22041AV  23319.28805211  .00001695  00000-0  12457-3 0  9991,2 52304  53.2171 284.2798 0001552  96.0525 264.0644 15.08846017 88232,6917.862,95.437,540.801,538.653,0.0
52304.0,STARLINK-3744,PAYLOAD,2023-11-15 14:51:43,15.08842741,0.000161,53.217,282.7917,86.8732,273.2444,4.4032e-05,4.13e-06,0.0,0 STARLINK-3744,1 52304U 22041AV  23319.61925426  .00000413  00000-0  44032-4 0  9991,2 52304  53.2170 282.7917 0001610  86.8732 273.2444 15.08842741 87069,6917.872,95.437,540.851,538.623,0.0
52304.0,STARLINK-3744,PAYLOAD,2023-11-16 06:45:35,15.08840794,0.0001592,53.2169,279.8188,87.0256,273.0919,7.3344e-05,8.79e-06,0.0,0 STARLINK-3744,1 52304U 22041AV  23320.28165635  .00000879  00000-0  73344-4 0  9998,2 52304  53.2169 279.8188 0001592  87.0256 273.0919 15.08840794 87169,6917.878,95.438,540.844,538.642,0.0
52304.0,STARLINK-3744,PAYLOAD,2023-11-17 14:33:18,15.08835448,0.0001627,53.2183,273.8698,93.9089,266.2089,0.00012539,1.708e-05,0.0,0 STARLINK-3744,1 52304U 22041AV  23321.60646228  .00001708  00000-0  12539-3 0  9997,2 52304  53.2183 273.8698 0001627  93.9089 266.2089 15.08835448 87368,6917.894,95.438,540.885,538.634,0.0
52304.0,STARLINK-3744,PAYLOAD,2023-11-18 03:16:23,15.08843664,0.0001617,53.2173,271.4908,87.6372,272.4805,8.887e-05,1.127e-05,0.0,0 STARLINK-3744,1 52304U 22041AV  23322.13637756  .00001127  00000-0  88870-4 0  9999,2 52304  53.2173 271.4908 0001617  87.6372 272.4805 15.08843664 88667,6917.869,95.437,540.853,538.616,0.0
52304.0,STARLINK-3744,PAYLOAD,2023-11-18 20:45:37,15.08840404,0.0001695,53.2167,268.2202,88.3643,271.7543,6.5643e-05,7.57e-06,0.0,0 STARLINK-3744,1 52304U 22041AV  23322.86502064  .00000757  00000-0  65643-4 0  9993,2 52304  53.2167 268.2202 0001695  88.3643 271.7543 15.08840404 87553,6917.879,95.438,540.917,538.572,0.0
52304.0,STARLINK-3744,PAYLOAD,2023-11-19 03:07:10,15.08841842,0.0001628,53.2166,267.0307,90.5699,269.548,6.974e-05,8.22e-06,0.0,0 STARLINK-3744,1 52304U 22041AV  23323.12997895  .00000822  00000-0  69740-4 0  9998,2 52304  53.2166 267.0307 0001628  90.5699 269.5480 15.08841842 88819,6917.875,95.437,540.866,538.614,0.0
52304.0,STARLINK-3744,PAYLOAD,2023-11-20 12:30:16,15.08839847,0.0001666,53.2171,260.7884,99.741,260.3771,3.8591e-05,3.26e-06,0.0,0 STARLINK-3744,1 52304U 22041AV  23324.52102040  .00000326  00000-0  38591-4 0  9992,2 52304  53.2171 260.7884 0001666  99.7410 260.3771 15.08839847 87801,6917.881,95.438,540.898,538.593,0.0
52304.0,STARLINK-3744,PAYLOAD,2023-11-21 02:48:43,15.08853183,0.0001486,53.2172,258.1086,99.0511,261.065,0.00012803,1.751e-05,0.0,0 STARLINK-3744,1 52304U 22041AV  23325.11716702  .00001751  00000-0  12803-3 0  9994,2 52304  53.2172 258.1086 0001486  99.0511 261.0650 15.08853183 89111,6917.84,95.437,540.733,538.677,0.0
52304.0,STARLINK-3744,PAYLOAD,2023-11-21 05:59:29,15.08859193,0.0001567,53.2172,257.5154,99.2168,260.9001,5.8441e-05,6.43e-06,0.0,0 STARLINK-3744,1 52304U 22041AV  23325.24964503  .00000643  00000-0  58441-4 0  9990,2 52304  53.2172 257.5154 0001567  99.2168 260.9001 15.08859193 87911,6917.822,95.436,540.771,538.603,0.0
52304.0,STARLINK-3744,PAYLOAD,2023-11-21 20:17:59,15.08836975,0.0001708,53.217,254.8371,90.1432,269.9756,2.8155e-05,1.6e-06,0.0,0 STARLINK-3744,1 52304U 22041AV  23325.84582344  .00000160  00000-0  28155-4 0  9998,2 52304  53.2170 254.8371 0001708  90.1432 269.9756 15.08836975 88001,6917.89,95.438,540.936,538.573,0.0
52304.0,STARLINK-3744,PAYLOAD,2023-11-22 01:04:08,15.08838974,0.0001601,53.2174,253.9444,93.9537,266.1638,3.7464e-05,3.08e-06,0.0,0 STARLINK-3744,1 52304U 22041AV  23326.04454176  .00000308  00000-0  37464-4 0  9999,2 52304  53.2174 253.9444 0001601  93.9537 266.1638 15.08838974 89252,6917.884,95.438,540.856,538.641,0.0
52304.0,STARLINK-3744,PAYLOAD,2023-11-22 05:50:17,15.0884255,0.0001697,53.2169,253.0526,92.1252,267.9934,6.2215e-05,7.02e-06,0.0,0 STARLINK-3744,1 52304U 22041AV  23326.24325943  .00000702  00000-0  62215-4 0  9990,2 52304  53.2169 253.0526 0001697  92.1252 267.9934 15.08842550 88069,6917.873,95.437,540.912,538.564,0.0
52304.0,STARLINK-3744,PAYLOAD,2023-11-23 02:30:17,15.08864271,0.0001403,53.2159,249.1884,95.909,264.2062,0.00027685,4.124e-05,0.0,0 STARLINK-3744,1 52304U 22041AV  23327.10436353  .00004124  00000-0  27685-3 0  9997,2 52304  53.2159 249.1884 0001403  95.9090 264.2062 15.08864271 89413,6917.806,95.436,540.642,538.701,0.0
52304.0,STARLINK-3744,PAYLOAD,2023-11-23 18:24:10,15.0883281,0.0001721,53.2163,246.2141,85.2387,274.8801,4.0213e-05,3.52e-06,0.0,0 STARLINK-3744,1 52304U 22041AV  23327.76678252  .00000352  00000-0  40213-4 0  9997,2 52304  53.2163 246.2141 0001721  85.2387 274.8801 15.08832810 89519,6917.902,95.438,540.958,538.577,0.0
52304.0,STARLINK-3744,PAYLOAD,2023-11-24 03:56:29,15.08829182,0.000138,53.2165,244.428,87.3861,272.7289,-7.3675e-05,-1.46e-05,0.0,0 STARLINK-3744,1 52304U 22041AV  23328.16422667 -.00001460  00000-0 -73675-4 0  9990,2 52304  53.2165 244.4280 0001380  87.3861 272.7289 15.08829182 88352,6917.913,95.438,540.733,538.824,0.0
